[{"OBJECT_NAME":"TIANMU-1 09","OBJECT_ID":"2023-101C","EPOCH":"2026-03-09T22:17:34.703232","MEAN_MOTION":15.29080822,"ECCENTRICITY":0.00049013,"INCLINATION":97.267,"RA_OF_ASC_NODE":121.1263,"ARG_OF_PERICENTER":139.4293,"MEAN_ANOMALY":220.7314,"EPHEMERIS_TYPE":0,"CLASSIFICATION_TYPE":"U","NORAD_CAT_ID":57401,"ELEMENT_SET_NO":999,"REV_AT_EPOCH":14647,"BSTAR":0.00030540035,"MEAN_MOTION_DOT":8.553e-5,"MEAN_MOTION_DDOT":0},{"OBJECT_NAME":"STARLINK-33714","OBJECT_ID":"2025-076N","EPOCH":"2026-03-09T02:37:15.902112","MEAN_MOTION":15.27592859,"ECCENTRICITY":0.00018731,"INCLINATION":43.003,"RA_OF_ASC_NODE":324.8001,"ARG_OF_PERICENTER":263.2654,"MEAN_ANOMALY":96.7985,"EPHEMERIS_TYPE":0,"CLASSIFICATION_TYPE":"U","NORAD_CAT_ID":63581,"ELEMENT_SET_NO":999,"REV_AT_EPOCH":5174,"BSTAR":0.0013362317,"MEAN_MOTION_DOT":0.00036706,"MEAN_MOTION_DDOT":0}]
